{"type": "FeatureCollection", "features": [{"type": "Feature", "properties": {"norad_id": 2807, "name": "OPS 7218 (TRANSIT 16)", "group": "nnss", "lat": -8.073009038009204, "lon": 173.67310620125764, "alt_km": 1077.8469874850125, "timestamp": "2025-12-24T11:33:00.285155+00:00", "meta": {"OBJECT_NAME": "OPS 7218 (TRANSIT 16)", "OBJECT_ID": "1967-048A", "EPOCH": "2025-12-24T00:13:23.606400", "MEAN_MOTION": 13.50724573, "ECCENTRICITY": 0.0022157, "INCLINATION": 89.6733, "RA_OF_ASC_NODE": 353.6423, "ARG_OF_PERICENTER": 84.0759, "MEAN_ANOMALY": 330.083, "EPHEMERIS_TYPE": 0, "CLASSIFICATION_TYPE": "U", "NORAD_CAT_ID": 2807, "ELEMENT_SET_NO": 999, "REV_AT_EPOCH": 88428, "BSTAR": 0.00013776, "MEAN_MOTION_DOT": 9.9e-07, "MEAN_MOTION_DDOT": 0}, "tle": {"line1": "1 02807U 67048A   25358.00930100  .00000099  00000+0  13776-3 0  9992", "line2": "2 02807  89.6733 353.6423 0022157  84.0759 330.0830 13.50724573884285"}}, "geometry": {"type": "Point", "coordinates": [173.67310620125764, -8.073009038009204]}}, {"type": "Feature", "properties": {"norad_id": 2965, "name": "OPS 4947 (TRANSIT 17)", "group": "nnss", "lat": 7.524566477764311, "lon": 23.638961627434554, "alt_km": 1095.7126322588647, "timestamp": "2025-12-24T11:33:00.285180+00:00", "meta": {"OBJECT_NAME": "OPS 4947 (TRANSIT 17)", "OBJECT_ID": "1967-092A", "EPOCH": "2025-12-24T02:56:01.091040", "MEAN_MOTION": 13.53456547, "ECCENTRICITY": 0.0047039, "INCLINATION": 89.2486, "RA_OF_ASC_NODE": 23.567, "ARG_OF_PERICENTER": 200.7107, "MEAN_ANOMALY": 218.5602, "EPHEMERIS_TYPE": 0, "CLASSIFICATION_TYPE": "U", "NORAD_CAT_ID": 2965, "ELEMENT_SET_NO": 999, "REV_AT_EPOCH": 87251, "BSTAR": 0.00018711, "MEAN_MOTION_DOT": 1.38e-06, "MEAN_MOTION_DDOT": 0}, "tle": {"line1": "1 02965U 67092A   25358.12223485  .00000138  00000+0  18711-3 0  9998", "line2": "2 02965  89.2486  23.5670 0047039 200.7107 218.5602 13.53456547872514"}}, "geometry": {"type": "Point", "coordinates": [23.638961627434554, 7.524566477764311]}}, {"type": "Feature", "properties": {"norad_id": 3133, "name": "OPS 7034 (TRANSIT 18)", "group": "nnss", "lat": 76.22621273113432, "lon": -86.44401199657, "alt_km": 1030.4757785835236, "timestamp": "2025-12-24T11:33:00.285194+00:00", "meta": {"OBJECT_NAME": "OPS 7034 (TRANSIT 18)", "OBJECT_ID": "1968-012A", "EPOCH": "2025-12-24T00:34:04.440000", "MEAN_MOTION": 13.51568276, "ECCENTRICITY": 0.0074893, "INCLINATION": 90.0285, "RA_OF_ASC_NODE": 273.671, "ARG_OF_PERICENTER": 136.7043, "MEAN_ANOMALY": 235.1328, "EPHEMERIS_TYPE": 0, "CLASSIFICATION_TYPE": "U", "NORAD_CAT_ID": 3133, "ELEMENT_SET_NO": 999, "REV_AT_EPOCH": 57071, "BSTAR": 0.0002117, "MEAN_MOTION_DOT": 1.5e-06, "MEAN_MOTION_DDOT": 0}, "tle": {"line1": "1 03133U 68012A   25358.02366250  .00000150  00000+0  21170-3 0  9993", "line2": "2 03133  90.0285 273.6710 0074893 136.7043 235.1328 13.51568276570715"}}, "geometry": {"type": "Point", "coordinates": [-86.44401199657, 76.22621273113432]}}, {"type": "Feature", "properties": {"norad_id": 4507, "name": "NNSS 19 (TRANSIT 19)", "group": "nnss", "lat": 39.03141639668427, "lon": -125.46218733907713, "alt_km": 1160.8302801462905, "timestamp": "2025-12-24T11:33:00.285206+00:00", "meta": {"OBJECT_NAME": "NNSS 19 (TRANSIT 19)", "OBJECT_ID": "1970-067A", "EPOCH": "2025-12-24T02:28:07.603392", "MEAN_MOTION": 13.51317397, "ECCENTRICITY": 0.0170224, "INCLINATION": 90.0049, "RA_OF_ASC_NODE": 234.5416, "ARG_OF_PERICENTER": 260.1168, "MEAN_ANOMALY": 98.0731, "EPHEMERIS_TYPE": 0, "CLASSIFICATION_TYPE": "U", "NORAD_CAT_ID": 4507, "ELEMENT_SET_NO": 999, "REV_AT_EPOCH": 72375, "BSTAR": 0.00014583, "MEAN_MOTION_DOT": 1.11e-06, "MEAN_MOTION_DDOT": 0}, "tle": {"line1": "1 04507U 70067A   25358.10286578  .00000111  00000+0  14583-3 0  9992", "line2": "2 04507  90.0049 234.5416 0170224 260.1168  98.0731 13.51317397723757"}}, "geometry": {"type": "Point", "coordinates": [-125.46218733907713, 39.03141639668427]}}, {"type": "Feature", "properties": {"norad_id": 6909, "name": "NNSS 20 (TRANSIT 20)", "group": "nnss", "lat": -59.391182661912374, "lon": 75.12167386394795, "alt_km": 1112.3228219875327, "timestamp": "2025-12-24T11:33:00.285217+00:00", "meta": {"OBJECT_NAME": "NNSS 20 (TRANSIT 20)", "OBJECT_ID": "1973-081A", "EPOCH": "2025-12-23T16:52:47.423424", "MEAN_MOTION": 13.71439948, "ECCENTRICITY": 0.01562328, "INCLINATION": 89.8561, "RA_OF_ASC_NODE": 254.89, "ARG_OF_PERICENTER": 45.8278, "MEAN_ANOMALY": 315.5602, "EPHEMERIS_TYPE": 0, "CLASSIFICATION_TYPE": "U", "NORAD_CAT_ID": 6909, "ELEMENT_SET_NO": 999, "REV_AT_EPOCH": 80511, "BSTAR": 0.00027861987, "MEAN_MOTION_DOT": 2.84e-06, "MEAN_MOTION_DDOT": 0}, "tle": {"line1": "1 06909U 73081A   25357.70332666  .00000284  00000+0  27862-3 0  9999", "line2": "2 06909  89.8561 254.8900 0156232  45.8278 315.5602 13.71439948805110"}}, "geometry": {"type": "Point", "coordinates": [75.12167386394795, -59.391182661912374]}}, {"type": "Feature", "properties": {"norad_id": 10457, "name": "TRANSAT", "group": "nnss", "lat": -57.15349111609997, "lon": 77.63496119662639, "alt_km": 1099.7615627985124, "timestamp": "2025-12-24T11:33:00.285228+00:00", "meta": {"OBJECT_NAME": "TRANSAT", "OBJECT_ID": "1977-106A", "EPOCH": "2025-12-24T03:15:18.202176", "MEAN_MOTION": 13.48945287, "ECCENTRICITY": 0.0026428, "INCLINATION": 89.6476, "RA_OF_ASC_NODE": 78.1934, "ARG_OF_PERICENTER": 157.16, "MEAN_ANOMALY": 268.1532, "EPHEMERIS_TYPE": 0, "CLASSIFICATION_TYPE": "U", "NORAD_CAT_ID": 10457, "ELEMENT_SET_NO": 999, "REV_AT_EPOCH": 36897, "BSTAR": 0.00013063, "MEAN_MOTION_DOT": 9.2e-07, "MEAN_MOTION_DDOT": 0}, "tle": {"line1": "1 10457U 77106A   25358.13562734  .00000092  00000+0  13063-3 0  9998", "line2": "2 10457  89.6476  78.1934 0026428 157.1600 268.1532 13.48945287368974"}}, "geometry": {"type": "Point", "coordinates": [77.63496119662639, -57.15349111609997]}}, {"type": "Feature", "properties": {"norad_id": 12458, "name": "NOVA 1", "group": "nnss", "lat": -21.149680058682286, "lon": -88.72372262661595, "alt_km": 1184.4453847379727, "timestamp": "2025-12-24T11:33:00.285239+00:00", "meta": {"OBJECT_NAME": "NOVA 1", "OBJECT_ID": "1981-044A", "EPOCH": "2025-12-24T00:31:33.367872", "MEAN_MOTION": 13.23279653, "ECCENTRICITY": 0.001576, "INCLINATION": 89.8525, "RA_OF_ASC_NODE": 91.2257, "ARG_OF_PERICENTER": 76.2569, "MEAN_ANOMALY": 97.7005, "EPHEMERIS_TYPE": 0, "CLASSIFICATION_TYPE": "U", "NORAD_CAT_ID": 12458, "ELEMENT_SET_NO": 999, "REV_AT_EPOCH": 15335, "BSTAR": 0.0002102, "MEAN_MOTION_DOT": 9.8e-07, "MEAN_MOTION_DDOT": 0}, "tle": {"line1": "1 12458U 81044A   25358.02191398  .00000098  00000+0  21020-3 0  9997", "line2": "2 12458  89.8525  91.2257 0015760  76.2569  97.7005 13.23279653153355"}}, "geometry": {"type": "Point", "coordinates": [-88.72372262661595, -21.149680058682286]}}, {"type": "Feature", "properties": {"norad_id": 15362, "name": "NOVA 3", "group": "nnss", "lat": 63.93867156667758, "lon": 80.4237611208318, "alt_km": 1180.1281820146269, "timestamp": "2025-12-24T11:33:00.285250+00:00", "meta": {"OBJECT_NAME": "NOVA 3", "OBJECT_ID": "1984-110A", "EPOCH": "2025-12-24T04:15:57.846240", "MEAN_MOTION": 13.23045902, "ECCENTRICITY": 0.0029883, "INCLINATION": 90.1217, "RA_OF_ASC_NODE": 80.6692, "ARG_OF_PERICENTER": 298.9641, "MEAN_ANOMALY": 120.0172, "EPHEMERIS_TYPE": 0, "CLASSIFICATION_TYPE": "U", "NORAD_CAT_ID": 15362, "ELEMENT_SET_NO": 999, "REV_AT_EPOCH": 98850, "BSTAR": 0.00016434, "MEAN_MOTION_DOT": 7.7e-07, "MEAN_MOTION_DDOT": 0}, "tle": {"line1": "1 15362U 84110A   25358.17775285  .00000077  00000+0  16434-3 0  9990", "line2": "2 15362  90.1217  80.6692 0029883 298.9641 120.0172 13.23045902988501"}}, "geometry": {"type": "Point", "coordinates": [80.4237611208318, 63.93867156667758]}}, {"type": "Feature", "properties": {"norad_id": 15935, "name": "OSCAR 30", "group": "nnss", "lat": -27.343941650483725, "lon": 100.12472978870761, "alt_km": 1101.948999259388, "timestamp": "2025-12-24T11:33:00.285261+00:00", "meta": {"OBJECT_NAME": "OSCAR 30", "OBJECT_ID": "1985-066A", "EPOCH": "2025-12-24T01:44:58.739712", "MEAN_MOTION": 13.36080177, "ECCENTRICITY": 0.0168937, "INCLINATION": 90.1654, "RA_OF_ASC_NODE": 100.0325, "ARG_OF_PERICENTER": 52.2294, "MEAN_ANOMALY": 119.4525, "EPHEMERIS_TYPE": 0, "CLASSIFICATION_TYPE": "U", "NORAD_CAT_ID": 15935, "ELEMENT_SET_NO": 999, "REV_AT_EPOCH": 96604, "BSTAR": 0.00019005, "MEAN_MOTION_DOT": 1.15e-06, "MEAN_MOTION_DDOT": 0}, "tle": {"line1": "1 15935U 85066A   25358.07290208  .00000115  00000+0  19005-3 0  9993", "line2": "2 15935  90.1654 100.0325 0168937  52.2294 119.4525 13.36080177966047"}}, "geometry": {"type": "Point", "coordinates": [100.12472978870761, -27.343941650483725]}}, {"type": "Feature", "properties": {"norad_id": 15936, "name": "OSCAR 24", "group": "nnss", "lat": 43.427847939216285, "lon": 92.34342154673122, "alt_km": 996.8873379812012, "timestamp": "2025-12-24T11:33:00.285272+00:00", "meta": {"OBJECT_NAME": "OSCAR 24", "OBJECT_ID": "1985-066B", "EPOCH": "2025-12-24T01:24:08.383968", "MEAN_MOTION": 13.35937329, "ECCENTRICITY": 0.0170106, "INCLINATION": 90.1791, "RA_OF_ASC_NODE": 92.5056, "ARG_OF_PERICENTER": 58.7246, "MEAN_ANOMALY": 112.9277, "EPHEMERIS_TYPE": 0, "CLASSIFICATION_TYPE": "U", "NORAD_CAT_ID": 15936, "ELEMENT_SET_NO": 999, "REV_AT_EPOCH": 96794, "BSTAR": 0.00014323, "MEAN_MOTION_DOT": 8.9e-07, "MEAN_MOTION_DDOT": 0}, "tle": {"line1": "1 15936U 85066B   25358.05843037  .00000089  00000+0  14323-3 0  9994", "line2": "2 15936  90.1791  92.5056 0170106  58.7246 112.9277 13.35937329967946"}}, "geometry": {"type": "Point", "coordinates": [92.34342154673122, 43.427847939216285]}}]}